{"fetched_at":"2026-03-30T06:02:59Z","count":15439,"tles":[{"name":"STARLINK-36486","line1":"1 67335U 26003B   26087.43561346  .00020725  00000+0  76016-3 0  9998","line2":"2 67335  43.0019 120.9552 0001432 272.7749  87.2939 15.27596598 11697","category":"Starlink"}]}